start=new Date('2022-02-24T00:00:00.000Z').valueOf();
sats=[{"OBJECT_ID":"2020-012W","TIME_SYSTEM":"UTC","ECCENTRICITY":"0.00014620","LAUNCH_DATE":"2020-02-17","INCLINATION":"53.0534","FILE":"3317219","MEAN_ELEMENT_THEORY":"SGP4","ELEMENT_SET_NO":"999","GP_ID":"196782847","CENTER_NAME":"EARTH","REF_FRAME":"TEME","MEAN_ANOMALY":"290.9780","DECAY_DATE":null,"OBJECT_TYPE":"PAYLOAD","COUNTRY_CODE":"US","EPHEMERIS_TYPE":"0","OBJECT_NAME":"STARLINK-1154","NORAD_CAT_ID":"45198","PERIAPSIS":"546.207","REV_AT_EPOCH":"11274","CLASSIFICATION_TYPE":"U","ARG_OF_PERICENTER":"69.1366","SEMIMAJOR_AXIS":"6925.355","BSTAR":"0.00016971000000","PERIOD":"95.592","EPOCH":"2022-02-23T16:46:27.035328","MEAN_MOTION_DOT":"0.00002247","MEAN_MOTION_DDOT":"0.0000000000000","TLE_LINE1":"1 45198U 20012W   22054.69892402  .00002247  00000-0  16971-3 0  9997","MEAN_MOTION":"15.06397913","RA_OF_ASC_NODE":"168.1062","SITE":"AFETR","RCS_SIZE":"LARGE","TLE_LINE2":"2 45198  53.0534 168.1062 0001462  69.1366 290.9780 15.06397913112741","APOAPSIS":"548.232"},{"MEAN_ELEMENT_THEORY":"SGP4","GP_ID":"196783097","ELEMENT_SET_NO":"999","LAUNCH_DATE":"2020-02-17","INCLINATION":"53.0515","FILE":"3317219","OBJECT_ID":"2020-012X","TIME_SYSTEM":"UTC","ECCENTRICITY":"0.00014810","OBJECT_NAME":"STARLINK-1197","NORAD_CAT_ID":"45199","DECAY_DATE":null,"COUNTRY_CODE":"US","OBJECT_TYPE":"PAYLOAD","EPHEMERIS_TYPE":"0","MEAN_ANOMALY":"293.7300","CENTER_NAME":"EARTH","REF_FRAME":"TEME","SEMIMAJOR_AXIS":"6925.365","BSTAR":"0.00003577600000","PERIOD":"95.592","REV_AT_EPOCH":"11281","ARG_OF_PERICENTER":"66.3845","CLASSIFICATION_TYPE":"U","PERIAPSIS":"546.204","SITE":"AFETR","RCS_SIZE":"LARGE","TLE_LINE2":"2 45199  53.0515 167.7908 0001481  66.3845 293.7300 15.06394591112813","APOAPSIS":"548.256","MEAN_MOTION":"15.06394591","RA_OF_ASC_NODE":"167.7908","MEAN_MOTION_DDOT":"0.0000000000000","TLE_LINE1":"1 45199U 20012X   22054.76895930  .00000251  00000-0  35776-4 0  9993","MEAN_MOTION_DOT":"0.00000251","EPOCH":"2022-02-23T18:27:18.083520"},{"REV_AT_EPOCH":"11281","CLASSIFICATION_TYPE":"U","ARG_OF_PERICENTER":"63.1411","PERIAPSIS":"546.207","SEMIMAJOR_AXIS":"6925.320","BSTAR":"0.00069176000000","PERIOD":"95.592","MEAN_MOTION_DDOT":"0.0000000000000","TLE_LINE1":"1 45201U 20012Z   22054.77633467  .00010040  00000-0  69176-3 0  9990","EPOCH":"2022-02-23T18:37:55.315488","MEAN_MOTION_DOT":"0.00010040","SITE":"AFETR","RCS_SIZE":"LARGE","TLE_LINE2":"2 45201  53.0511 167.7683 0001411  63.1411 296.9722 15.06409431112813","APOAPSIS":"548.162","MEAN_MOTION":"15.06409431","RA_OF_ASC_NODE":"167.7683","OBJECT_ID":"2020-012Z","TIME_SYSTEM":"UTC","ECCENTRICITY":"0.00014110","MEAN_ELEMENT_THEORY":"SGP4","GP_ID":"196783849","ELEMENT_SET_NO":"999","LAUNCH_DATE":"2020-02-17","INCLINATION":"53.0511","FILE":"3317219","MEAN_ANOMALY":"296.9722","CENTER_NAME":"EARTH","REF_FRAME":"TEME","OBJECT_NAME":"STARLINK-1199","NORAD_CAT_ID":"45201","DECAY_DATE":null,"COUNTRY_CODE":"US","OBJECT_TYPE":"PAYLOAD","EPHEMERIS_TYPE":"0"},{"EPOCH":"2022-02-23T14:34:24.099168","MEAN_MOTION_DOT":"0.00012767","MEAN_MOTION_DDOT":"0.0000000000000","TLE_LINE1":"1 45202U 20012AA  22054.60722337  .00012767  00000-0  78077-3 0  9996","MEAN_MOTION":"15.10578788","RA_OF_ASC_NODE":"180.0563","SITE":"AFETR","RCS_SIZE":"LARGE","TLE_LINE2":"2 45202  52.9801 180.0563 0000754 102.4884 257.6191 15.10578788111662","APOAPSIS":"534.957","PERIAPSIS":"533.915","REV_AT_EPOCH":"11166","ARG_OF_PERICENTER":"102.4884","CLASSIFICATION_TYPE":"U","SEMIMAJOR_AXIS":"6912.571","BSTAR":"0.00078077000000","PERIOD":"95.328","CENTER_NAME":"EARTH","REF_FRAME":"TEME","MEAN_ANOMALY":"257.6191","DECAY_DATE":null,"COUNTRY_CODE":"US","OBJECT_TYPE":"PAYLOAD","EPHEMERIS_TYPE":"0","OBJECT_NAME":"STARLINK-1203","NORAD_CAT_ID":"45202","OBJECT_ID":"2020-012AA","TIME_SYSTEM":"UTC","ECCENTRICITY":"0.00007540","LAUNCH_DATE":"2020-02-17","INCLINATION":"52.9801","FILE":"3316572","MEAN_ELEMENT_THEORY":"SGP4","GP_ID":"196749826","ELEMENT_SET_NO":"999"},{"MEAN_ANOMALY":"304.3953","CENTER_NAME":"EARTH","REF_FRAME":"TEME","OBJECT_NAME":"STARLINK-1206","NORAD_CAT_ID":"45204","DECAY_DATE":null,"OBJECT_TYPE":"PAYLOAD","COUNTRY_CODE":"US","EPHEMERIS_TYPE":"0","OBJECT_ID":"2020-012AC","TIME_SYSTEM":"UTC","ECCENTRICITY":"0.00015500","MEAN_ELEMENT_THEORY":"SGP4","ELEMENT_SET_NO":"999","GP_ID":"196783348","LAUNCH_DATE":"2020-02-17","INCLINATION":"53.0559","FILE":"3317219","MEAN_MOTION_DDOT":"0.0000000000000","TLE_LINE1":"1 45204U 20012AC  22054.73578596  .00001450  00000-0  11622-3 0  9998","MEAN_MOTION_DOT":"0.00001450","EPOCH":"2022-02-23T17:39:31.906944","SITE":"AFETR","RCS_SIZE":"LARGE","TLE_LINE2":"2 45204  53.0559 167.9420 0001550  55.7182 304.3953 15.06396566112820","APOAPSIS":"548.298","MEAN_MOTION":"15.06396566","RA_OF_ASC_NODE":"167.9420","REV_AT_EPOCH":"11282","CLASSIFICATION_TYPE":"U","ARG_OF_PERICENTER":"55.7182","PERIAPSIS":"546.151","SEMIMAJOR_AXIS":"6925.359","BSTAR":"0.00011622000000","PERIOD":"95.592"},{"MEAN_MOTION_DOT":"-0.00000096","EPOCH":"2022-02-23T16:35:49.876800","MEAN_MOTION_DDOT":"0.0000000000000","TLE_LINE1":"1 45205U 20012AD  22054.69154950 -.00000096  00000-0  12478-4 0  9995","MEAN_MOTION":"15.06392186","RA_OF_ASC_NODE":"168.1310","RCS_SIZE":"LARGE","SITE":"AFETR","APOAPSIS":"548.224","TLE_LINE2":"2 45205  53.0523 168.1310 0001424  68.1125 292.0016 15.06392186112825","PERIAPSIS":"546.251","REV_AT_EPOCH":"11282","CLASSIFICATION_TYPE":"U","ARG_OF_PERICENTER":"68.1125","BSTAR":"0.00001247800000","SEMIMAJOR_AXIS":"6925.373","PERIOD":"95.593","CENTER_NAME":"EARTH","REF_FRAME":"TEME","MEAN_ANOMALY":"292.0016","DECAY_DATE":null,"OBJECT_TYPE":"PAYLOAD","COUNTRY_CODE":"US","EPHEMERIS_TYPE":"0","OBJECT_NAME":"STARLINK-1208","NORAD_CAT_ID":"45205","TIME_SYSTEM":"UTC","OBJECT_ID":"2020-012AD","ECCENTRICITY":"0.00014240","LAUNCH_DATE":"2020-02-17","FILE":"3317219","INCLINATION":"53.0523","ELEMENT_SET_NO":"999","GP_ID":"196783598","MEAN_ELEMENT_THEORY":"SGP4"},{"RA_OF_ASC_NODE":"148.3234","MEAN_MOTION":"15.06401472","TLE_LINE2":"2 45206  53.0522 148.3234 0001384  71.6964 288.4175 15.06401472112122","APOAPSIS":"548.168","SITE":"AFETR","RCS_SIZE":"LARGE","MEAN_MOTION_DOT":"0.00001168","EPOCH":"2022-02-23T15:40:06.770496","TLE_LINE1":"1 45206U 20012AE  22054.65285614  .00001168  00000-0  97289-4 0  9997","MEAN_MOTION_DDOT":"0.0000000000000","PERIOD":"95.592","SEMIMAJOR_AXIS":"6925.344","BSTAR":"0.00009728900000","PERIAPSIS":"546.251","CLASSIFICATION_TYPE":"U","ARG_OF_PERICENTER":"71.6964","REV_AT_EPOCH":"11212","COUNTRY_CODE":"US","OBJECT_TYPE":"PAYLOAD","EPHEMERIS_TYPE":"0","DECAY_DATE":null,"NORAD_CAT_ID":"45206","OBJECT_NAME":"STARLINK-1209","REF_FRAME":"TEME","CENTER_NAME":"EARTH","MEAN_ANOMALY":"288.4175","INCLINATION":"53.0522","FILE":"3317219","LAUNCH_DATE":"2020-02-17","MEAN_ELEMENT_THEORY":"SGP4","ELEMENT_SET_NO":"999","GP_ID":"196784350","ECCENTRICITY":"0.00013840","OBJECT_ID":"2020-012AE","TIME_SYSTEM":"UTC"},{"SEMIMAJOR_AXIS":"6925.357","BSTAR":"0.00014493000000","PERIOD":"95.592","PERIAPSIS":"546.283","REV_AT_EPOCH":"11281","CLASSIFICATION_TYPE":"U","ARG_OF_PERICENTER":"66.8645","MEAN_MOTION":"15.06397183","RA_OF_ASC_NODE":"167.7368","SITE":"AFETR","RCS_SIZE":"LARGE","TLE_LINE2":"2 45207  53.0529 167.7368 0001356  66.8645 293.2486 15.06397183112812","APOAPSIS":"548.161","MEAN_MOTION_DOT":"0.00001878","EPOCH":"2022-02-23T18:43:13.685664","MEAN_MOTION_DDOT":"0.0000000000000","TLE_LINE1":"1 45207U 20012AF  22054.78001951  .00001878  00000-0  14493-3 0  9995","LAUNCH_DATE":"2020-02-17","INCLINATION":"53.0529","FILE":"3317219","MEAN_ELEMENT_THEORY":"SGP4","ELEMENT_SET_NO":"999","GP_ID":"196784100","OBJECT_ID":"2020-012AF","TIME_SYSTEM":"UTC","ECCENTRICITY":"0.00013560","DECAY_DATE":null,"COUNTRY_CODE":"US","EPHEMERIS_TYPE":"0","OBJECT_TYPE":"PAYLOAD","OBJECT_NAME":"STARLINK-1210","NORAD_CAT_ID":"45207","CENTER_NAME":"EARTH","REF_FRAME":"TEME","MEAN_ANOMALY":"293.2486"},{"REV_AT_EPOCH":"11270","CLASSIFICATION_TYPE":"U","ARG_OF_PERICENTER":"70.7959","PERIAPSIS":"548.771","BSTAR":"0.00014457000000","SEMIMAJOR_AXIS":"6927.834","PERIOD":"95.644","MEAN_MOTION_DDOT":"0.0000000000000","TLE_LINE1":"1 45208U 20012AG  22054.67803848  .00001828  00000-0  14457-3 0  9994","MEAN_MOTION_DOT":"0.00001828","EPOCH":"2022-02-23T16:16:22.524672","RCS_SIZE":"LARGE","SITE":"AFETR","APOAPSIS":"550.626","TLE_LINE2":"2 45208  53.0016 168.1903 0001339  70.7959 289.3173 15.05589486112702","MEAN_MOTION":"15.05589486","RA_OF_ASC_NODE":"168.1903","TIME_SYSTEM":"UTC","OBJECT_ID":"2020-012AG","ECCENTRICITY":"0.00013390","GP_ID":"196782848","ELEMENT_SET_NO":"999","MEAN_ELEMENT_THEORY":"SGP4","LAUNCH_DATE":"2020-02-17","INCLINATION":"53.0016","FILE":"3317219","MEAN_ANOMALY":"289.3173","CENTER_NAME":"EARTH","REF_FRAME":"TEME","OBJECT_NAME":"STARLINK-1211","NORAD_CAT_ID":"45208","DECAY_DATE":null,"COUNTRY_CODE":"US","OBJECT_TYPE":"PAYLOAD","EPHEMERIS_TYPE":"0"},{"SITE":"AFETR","RCS_SIZE":"LARGE","TLE_LINE2":"2 45209  53.0499  53.7397 0007305 302.4740  57.5573 15.76731293114328","APOAPSIS":"344.618","MEAN_MOTION":"15.76731293","RA_OF_ASC_NODE":"53.7397","MEAN_MOTION_DDOT":"0.0000000000000","TLE_LINE1":"1 45209U 20012AH  22054.41818083  .00002609  00000-0  19971-4 0  9999","MEAN_MOTION_DOT":"0.00002609","EPOCH":"2022-02-23T10:02:10.823712","SEMIMAJOR_AXIS":"6717.846","BSTAR":"0.00001997100000","PERIOD":"91.328","REV_AT_EPOCH":"11432","CLASSIFICATION_TYPE":"U","ARG_OF_PERICENTER":"302.4740","PERIAPSIS":"334.804","OBJECT_NAME":"STARLINK-1218","NORAD_CAT_ID":"45209","DECAY_DATE":null,"COUNTRY_CODE":"US","OBJECT_TYPE":"PAYLOAD","EPHEMERIS_TYPE":"0","MEAN_ANOMALY":"57.5573","CENTER_NAME":"EARTH","REF_FRAME":"TEME","MEAN_ELEMENT_THEORY":"SGP4","ELEMENT_SET_NO":"999","GP_ID":"196741108","LAUNCH_DATE":"2020-02-17","FILE":"3316306","INCLINATION":"53.0499","OBJECT_ID":"2020-012AH","TIME_SYSTEM":"UTC","ECCENTRICITY":"0.00073050"}];
